{"type": "FeatureCollection", "features": [ {"type": "Feature", "properties": {"norad_id": 34303, "name": "COSMOS 2251 DEB", "group": "cosmos-2251-debris", "lat": -38.30793334311954, "lon": -69.34929080242391, "alt_km": 770.7735329633797, "timestamp": "2025-12-04T10:51:50.499866+00:00", "meta": {"OBJECT_NAME": "COSMOS 2251 DEB", "OBJECT_ID": "1993-036MZ", "EPOCH": "2025-12-04T04:31:39.643392", "MEAN_MOTION": 14.54276066, "ECCENTRICITY": 0.0134856, "INCLINATION": 74.005, "RA_OF_ASC_NODE": 304.2476, "ARG_OF_PERICENTER": 84.802, "MEAN_ANOMALY": 294.76, "EPHEMERIS_TYPE": 0, "CLASSIFICATION_TYPE": "U", "NORAD_CAT_ID": 34303, "ELEMENT_SET_NO": 999, "REV_AT_EPOCH": 87838, "BSTAR": 0.0026321, "MEAN_MOTION_DOT": 0.00012595, "MEAN_MOTION_DDOT": 0}, "tle": {"line1": "1 34303U 93036MZ  25338.18865328  .00012595  00000+0  26321-2 0  9993", "line2": "2 34303  74.0050 304.2476 0134856  84.8020 294.7600 14.54276066878389"}}, "geometry": {"type": "Point", "coordinates": [-69.34929080242391, -38.30793334311954]}}, {"type": "Feature", "properties": {"norad_id": 34304, "name": "COSMOS 2251 DEB", "group": "cosmos-2251-debris", "lat": -24.16861635256613, "lon": -34.72836527941119, "alt_km": 741.9985009915172, "timestamp": "2025-12-04T10:51:50.499877+00:00", "meta": {"OBJECT_NAME": "COSMOS 2251 DEB", "OBJECT_ID": "1993-036NA", "EPOCH": "2025-12-04T03:46:45.369984", "MEAN_MOTION": 14.37735026, "ECCENTRICITY": 0.0128865, "INCLINATION": 74.012, "RA_OF_ASC_NODE": 138.4236, "ARG_OF_PERICENTER": 277.9676, "MEAN_ANOMALY": 201.2453, "EPHEMERIS_TYPE": 0, "CLASSIFICATION_TYPE": "U", "NORAD_CAT_ID": 34304, "ELEMENT_SET_NO": 999, "REV_AT_EPOCH": 87173, "BSTAR": 0.0026899, "MEAN_MOTION_DOT": 8.891e-05, "MEAN_MOTION_DDOT": 0}, "tle": {"line1": "1 34304U 93036NA  25338.15746956  .00008891  00000+0  26899-2 0  9990", "line2": "2 34304  74.0120 138.4236 0128865 277.9676 201.2453 14.37735026871732"}}, "geometry": {"type": "Point", "coordinates": [-34.72836527941119, -24.16861635256613]}}, {"type": "Feature", "properties": {"norad_id": 34307, "name": "COSMOS 2251 DEB", "group": "cosmos-2251-debris", "lat": 16.443170197486953, "lon": -28.745257822792198, "alt_km": 1281.8868223792697, "timestamp": "2025-12-04T10:51:50.499887+00:00", "meta": {"OBJECT_NAME": "COSMOS 2251 DEB", "OBJECT_ID": "1993-036ND", "EPOCH": "2025-12-03T10:42:20.312352", "MEAN_MOTION": 13.54301619, "ECCENTRICITY": 0.03923652, "INCLINATION": 74.0531, "RA_OF_ASC_NODE": 328.0288, "ARG_OF_PERICENTER": 161.0045, "MEAN_ANOMALY": 353.2249, "EPHEMERIS_TYPE": 0, "CLASSIFICATION_TYPE": "U", "NORAD_CAT_ID": 34307, "ELEMENT_SET_NO": 999, "REV_AT_EPOCH": 82736, "BSTAR": 0.00078040415, "MEAN_MOTION_DOT": 8.49e-06, "MEAN_MOTION_DDOT": 0}, "tle": {"line1": "1 34307U 93036ND  25337.44606843  .00000849  00000+0  78040-3 0  9995", "line2": "2 34307  74.0531 328.0288 0392365 161.0045 353.2249 13.54301619827362"}}, "geometry": {"type": "Point", "coordinates": [-28.745257822792198, 16.443170197486953]}}, {"type": "Feature", "properties": {"norad_id": 34313, "name": "COSMOS 2251 DEB", "group": "cosmos-2251-debris", "lat": -32.35155173797689, "lon": -47.61101168501933, "alt_km": 524.6402926084747, "timestamp": "2025-12-04T10:51:50.499898+00:00", "meta": {"OBJECT_NAME": "COSMOS 2251 DEB", "OBJECT_ID": "1993-036NK", "EPOCH": "2025-12-04T01:30:59.444928", "MEAN_MOTION": 15.16958604, "ECCENTRICITY": 0.0010636, "INCLINATION": 73.9716, "RA_OF_ASC_NODE": 323.6966, "ARG_OF_PERICENTER": 91.6501, "MEAN_ANOMALY": 268.5912, "EPHEMERIS_TYPE": 0, "CLASSIFICATION_TYPE": "U", "NORAD_CAT_ID": 34313, "ELEMENT_SET_NO": 999, "REV_AT_EPOCH": 88933, "BSTAR": 0.0071432, "MEAN_MOTION_DOT": 0.00144021, "MEAN_MOTION_DDOT": 0}, "tle": {"line1": "1 34313U 93036NK  25338.06318802  .00144021  00000+0  71432-2 0  9994", "line2": "2 34313  73.9716 323.6966 0010636  91.6501 268.5912 15.16958604889331"}}, "geometry": {"type": "Point", "coordinates": [-47.61101168501933, -32.35155173797689]}}, {"type": "Feature", "properties": {"norad_id": 34314, "name": "COSMOS 2251 DEB", "group": "cosmos-2251-debris", "lat": 65.34794234916941, "lon": 104.49141464654164, "alt_km": 768.8700712921891, "timestamp": "2025-12-04T10:51:50.499909+00:00", "meta": {"OBJECT_NAME": "COSMOS 2251 DEB", "OBJECT_ID": "1993-036NL", "EPOCH": "2025-12-04T02:26:18.335904", "MEAN_MOTION": 14.1738983, "ECCENTRICITY": 0.0102553, "INCLINATION": 74.0053, "RA_OF_ASC_NODE": 323.7987, "ARG_OF_PERICENTER": 71.6858, "MEAN_ANOMALY": 45.9151, "EPHEMERIS_TYPE": 0, "CLASSIFICATION_TYPE": "U", "NORAD_CAT_ID": 34314, "ELEMENT_SET_NO": 999, "REV_AT_EPOCH": 86535, "BSTAR": 0.0010518, "MEAN_MOTION_DOT": 2.218e-05, "MEAN_MOTION_DDOT": 0}, "tle": {"line1": "1 34314U 93036NL  25338.10160111  .00002218  00000+0  10518-2 0  9997", "line2": "2 34314  74.0053 323.7987 0102553  71.6858  45.9151 14.17389830865352"}}, "geometry": {"type": "Point", "coordinates": [104.49141464654164, 65.34794234916941]}}, {"type": "Feature", "properties": {"norad_id": 34316, "name": "COSMOS 2251 DEB", "group": "cosmos-2251-debris", "lat": -62.624950813499574, "lon": -153.02429032682835, "alt_km": 605.5504268651266, "timestamp": "2025-12-04T10:51:50.499919+00:00", "meta": {"OBJECT_NAME": "COSMOS 2251 DEB", "OBJECT_ID": "1993-036NN", "EPOCH": "2025-12-04T01:42:33.573024", "MEAN_MOTION": 14.91417164, "ECCENTRICITY": 0.000783, "INCLINATION": 74.0649, "RA_OF_ASC_NODE": 354.2493, "ARG_OF_PERICENTER": 83.2481, "MEAN_ANOMALY": 276.9592, "EPHEMERIS_TYPE": 0, "CLASSIFICATION_TYPE": "U", "NORAD_CAT_ID": 34316, "ELEMENT_SET_NO": 999, "REV_AT_EPOCH": 89080, "BSTAR": 0.0032226, "MEAN_MOTION_DOT": 0.00032335, "MEAN_MOTION_DDOT": 0}, "tle": {"line1": "1 34316U 93036NN  25338.07122191  .00032335  00000+0  32226-2 0  9994", "line2": "2 34316  74.0649 354.2493 0007830  83.2481 276.9592 14.91417164890806"}}, "geometry": {"type": "Point", "coordinates": [-153.02429032682835, -62.624950813499574]}}, {"type": "Feature", "properties": {"norad_id": 34317, "name": "COSMOS 2251 DEB", "group": "cosmos-2251-debris", "lat": 12.211507820788059, "lon": -134.1772719951988, "alt_km": 1161.825908424359, "timestamp": "2025-12-04T10:51:50.499930+00:00", "meta": {"OBJECT_NAME": "COSMOS 2251 DEB", "OBJECT_ID": "1993-036NP", "EPOCH": "2025-12-03T11:17:00.960864", "MEAN_MOTION": 13.6510987, "ECCENTRICITY": 0.03362846, "INCLINATION": 73.925, "RA_OF_ASC_NODE": 51.0171, "ARG_OF_PERICENTER": 42.0922, "MEAN_ANOMALY": 335.2767, "EPHEMERIS_TYPE": 0, "CLASSIFICATION_TYPE": "U", "NORAD_CAT_ID": 34317, "ELEMENT_SET_NO": 999, "REV_AT_EPOCH": 83493, "BSTAR": 0.00051395611, "MEAN_MOTION_DOT": 5.92e-06, "MEAN_MOTION_DDOT": 0}, "tle": {"line1": "1 34317U 93036NP  25337.47015001  .00000592  00000+0  51396-3 0  9999", "line2": "2 34317  73.9250  51.0171 0336284  42.0922 335.2767 13.65109870834936"}}, "geometry": {"type": "Point", "coordinates": [-134.1772719951988, 12.211507820788059]}}, {"type": "Feature", "properties": {"norad_id": 34321, "name": "COSMOS 2251 DEB", "group": "cosmos-2251-debris", "lat": -15.933143200569639, "lon": -3.3792403747716446, "alt_km": 733.0302413453637, "timestamp": "2025-12-04T10:51:50.499940+00:00", "meta": {"OBJECT_NAME": "COSMOS 2251 DEB", "OBJECT_ID": "1993-036NT", "EPOCH": "2025-12-03T22:55:21.872064", "MEAN_MOTION": 14.49996768, "ECCENTRICITY": 0.0015638, "INCLINATION": 74.0276, "RA_OF_ASC_NODE": 172.8651, "ARG_OF_PERICENTER": 302.9406, "MEAN_ANOMALY": 177.5399, "EPHEMERIS_TYPE": 0, "CLASSIFICATION_TYPE": "U", "NORAD_CAT_ID": 34321, "ELEMENT_SET_NO": 999, "REV_AT_EPOCH": 88359, "BSTAR": 0.0010086, "MEAN_MOTION_DOT": 3.886e-05, "MEAN_MOTION_DDOT": 0}, "tle": {"line1": "1 34321U 93036NT  25337.95511426  .00003886  00000+0  10086-2 0  9998", "line2": "2 34321  74.0276 172.8651 0015638 302.9406 177.5399 14.49996768883595"}}, "geometry": {"type": "Point", "coordinates": [-3.3792403747716446, -15.933143200569639]}}, {"type": "Feature", "properties": {"norad_id": 34323, "name": "COSMOS 2251 DEB", "group": "cosmos-2251-debris", "lat": -30.35648337446692, "lon": -30.923108607848537, "alt_km": 615.6605447912898, "timestamp": "2025-12-04T10:51:50.499951+00:00", "meta": {"OBJECT_NAME": "COSMOS 2251 DEB", "OBJECT_ID": "1993-036NV", "EPOCH": "2025-12-03T13:00:45.615168", "MEAN_MOTION": 14.73904836, "ECCENTRICITY": 0.00610358, "INCLINATION": 73.952, "RA_OF_ASC_NODE": 141.1561, "ARG_OF_PERICENTER": 187.2235, "MEAN_ANOMALY": 234.9904, "EPHEMERIS_TYPE": 0, "CLASSIFICATION_TYPE": "U", "NORAD_CAT_ID": 34323, "ELEMENT_SET_NO": 999, "REV_AT_EPOCH": 88304, "BSTAR": 0.003774642, "MEAN_MOTION_DOT": 0.00025569, "MEAN_MOTION_DDOT": 0}, "tle": {"line1": "1 34323U 93036NV  25337.54219462  .00025569  00000+0  37746-2 0  9994", "line2": "2 34323  73.9520 141.1561 0061035 187.2235 234.9904 14.73904836883044"}}, "geometry": {"type": "Point", "coordinates": [-30.923108607848537, -30.35648337446692]}}, {"type": "Feature", "properties": {"norad_id": 34325, "name": "COSMOS 2251 DEB", "group": "cosmos-2251-debris", "lat": -12.02481297802422, "lon": -156.1261547724805, "alt_km": 953.2275262804087, "timestamp": "2025-12-04T10:51:50.499962+00:00", "meta": {"OBJECT_NAME": "COSMOS 2251 DEB", "OBJECT_ID": "1993-036NX", "EPOCH": "2025-12-04T01:16:49.662912", "MEAN_MOTION": 14.04388911, "ECCENTRICITY": 0.0193165, "INCLINATION": 73.8713, "RA_OF_ASC_NODE": 208.1108, "ARG_OF_PERICENTER": 227.1676, "MEAN_ANOMALY": 260.4293, "EPHEMERIS_TYPE": 0, "CLASSIFICATION_TYPE": "U", "NORAD_CAT_ID": 34325, "ELEMENT_SET_NO": 999, "REV_AT_EPOCH": 85393, "BSTAR": 0.0032032, "MEAN_MOTION_DOT": 6.001e-05, "MEAN_MOTION_DDOT": 0}, "tle": {"line1": "1 34325U 93036NX  25338.05335258  .00006001  00000+0  32032-2 0  9998", "line2": "2 34325  73.8713 208.1108 0193165 227.1676 260.4293 14.04388911853937"}}, "geometry": {"type": "Point", "coordinates": [-156.1261547724805, -12.02481297802422]}}]}